TANAGER-1               
1 60507U 24149AR  26175.15522891  .00001017  00000+0  23583-4 0  9995
2 60507  97.2460 269.3892 0004153 272.4125  87.6649 15.44790825104115
EAGLEEYE                
1 60508U 24149AS  26175.17467054  .00097649  00000+0  73896-3 0  9994
2 60508  97.3718 268.9035 0004812 219.5509 140.5404 15.72098107104031
FLOCK 4BE-29            
1 60509U 24149AT  26175.17829704  .00015479  00000+0  33741-3 0  9995
2 60509  97.3808 261.1566 0001711 241.9444 118.1632 15.44341811103493
TRANSPORTER-11 OBJECT AU
1 60510U 24149AU  26175.20405313  .00013043  00000+0  32464-3 0  9993
2 60510  97.3728 258.9810 0002416 248.4862 111.6127 15.40390659103397
FLOCK 4BE-2             
1 60511U 24149AV  26175.21117519  .00054520  00000+0  85880-3 0  9998
2 60511  97.3831 262.7097 0003984 227.4965 132.5952 15.53394306103592
FLOCK 4BE-13            
1 60512U 24149AW  26175.16455093  .00013241  00000+0  31195-3 0  9990
2 60512  97.3718 259.6488 0003367 227.1393 132.9572 15.42051523103448
FLOCK 4BE-27            
1 60513U 24149AX  26175.17195102  .00008437  00000+0  25440-3 0  9991
2 60513  97.3824 257.0266 0002315 275.1447  84.9532 15.34551042103217
FLOCK 4BE-9             
1 60514U 24149AY  26175.16859299  .00014428  00000+0  35203-3 0  9990
2 60514  97.3791 259.5083 0001700 246.7844 113.3223 15.40974326103391
FLOCK 4BE-6             
1 60516U 24149BA  26175.20291640  .00012533  00000+0  31879-3 0  9997
2 60516  97.3791 258.8880 0002346 252.2916 107.8073 15.39739947103352
FLOCK 4BE-14            
1 60517U 24149BB  26175.18016191  .00015253  00000+0  36941-3 0  9998
2 60517  97.3694 259.0075 0003373 253.7900 106.2975 15.41183364103403
FLOCK 4BE-1             
1 60518U 24149BC  26175.18877996  .00015557  00000+0  35708-3 0  9994
2 60518  97.3779 260.3187 0003077 251.8606 108.2307 15.42797944103452
FLOCK 4BE-28            
1 60519U 24149BD  26175.19250478  .00016196  00000+0  34371-3 0  9991
2 60519  97.3745 261.0686 0003202 246.5338 113.5574 15.45120464103524
IPERDRONE.0             
1 60520U 24149BE  26175.20270699  .00070155  00000+0  64161-3 0  9997
2 60520  97.3775 268.7649 0004146 208.4723 151.6312 15.67594868104010
TRANSPORTER-11 OBJECT BF
1 60521U 24149BF  26174.24898251  .00259315  00000+0  95543-3 0  9996
2 60521  97.3741 270.6699 0006703 228.1639 131.9061 15.87556925104046
CONNECTA IOT-2          
1 60522U 24149BG  26175.20558036  .00003649  00000+0  15345-3 0  9997
2 60522  97.3839 253.2448 0005008 307.7908  52.2875 15.24024455102960
CONNECTA IOT-4          
1 60524U 24149BJ  26175.21462466  .00017711  00000+0  41194-3 0  9997
2 60524  97.3798 259.6684 0004310 251.6792 108.3987 15.42367378103413
ORESAT0.5               
1 60525U 24149BK  26175.17696919  .00017779  00000+0  37458-3 0  9997
2 60525  97.3720 261.2848 0004465 240.1680 119.9125 15.45308530103555
DEIMOS                  
1 60526U 24149BL  26175.21308061  .00016725  00000+0  36308-3 0  9994
2 60526  97.3780 261.4583 0004333 248.1283 111.9505 15.44439271103539
CUAVA-2                 
1 60527U 24149BM  26175.18326497  .00010833  00000+0  30865-3 0  9990
2 60527  97.3726 256.7145 0005248 262.2829  97.7819 15.36253923103246
ERNST                   
1 60528U 24149BN  26175.19059938  .00012201  00000+0  31417-3 0  9990
2 60528  97.3805 258.9631 0004454 264.1515  95.9223 15.39364127103353
TORO                    
1 60530U 24149BQ  26175.19394168  .00001179  00000+0  10896-3 0  9990
2 60530  97.6782 249.7312 0001132  85.2891 274.8460 14.96442592101002
HYPSO-2                 
1 60531U 24149BR  26175.21067524  .00002106  00000+0  17954-3 0  9990
2 60531  97.6810 251.3683 0000592 125.6446 234.4832 14.98815348101100
LEMU NGE                
1 60532U 24149BS  26175.21310930  .00001979  00000+0  18625-3 0  9996
2 60532  97.6841 250.0307 0001653  59.4861 300.6523 14.94977024101006
LEMUR-2-STELLA          
1 60533U 24149BT  26175.16356701  .00009808  00000+0  57577-3 0  9995
2 60533  97.6735 257.6491 0001484  95.7079 264.4320 15.11934480101553
SATELIOT_2              
1 60534U 24149BU  26175.18137942  .00001105  00000+0  10263-3 0  9995
2 60534  97.6831 250.0100 0001909  84.3539 275.7900 14.96384755101018
NIGHTJAR                
1 60535U 24149BV  26175.20106103  .00002370  00000+0  20023-3 0  9994
2 60535  97.6831 251.8100 0000799 101.9367 258.1946 14.99045098143927
LEMUR-2-MARHISYAM       
1 60536U 24149BW  26175.21263513  .00008476  00000+0  50589-3 0  9998
2 60536  97.6882 258.1549 0003458 104.9077 255.2536 15.11376723101549
SATELIOT_4              
1 60537U 24149BX  26175.19078438  .00001042  00000+0  96265-4 0  9990
2 60537  97.6734 249.5421 0002568  42.0687 318.0732 14.96686530101020
PICO-02A021             
1 60538U 24149BY  26174.95583270  .00004338  00000+0  32417-3 0  9998
2 60538  97.6764 253.7292 0004491  12.3695 347.7640 15.03310536100758
ICEYE-X43               
1 60539U 24149BZ  26175.16817490  .00003515  00000+0  28979-3 0  9991
2 60539  97.6805 252.0374 0008211  64.6464 295.5609 14.99661997101161
